CIC_OEM_VERS = 2.0
CREATION_DATE =2022-33-21T22:04:23
ORIGINATOR = IONSAT TEAM

META_START

OBJECT_NAME =IONSAT
OBJECT_ID =IONSAT
CENTER_NAME =EARTH
REF_FRAME =ICRF
TIME_SYSTEM =UTC

META_STOP

2024-03-21T00:06:25 -2690.46653055444 -1324.94171963132 5959.96366074916 -6.95150725039277 -0.754503363216119 -3.3020709268083
2024-03-21T00:06:25 -2697.41623085625 -1325.69533374524 5956.65759122455 -6.94789179963835 -0.752724696500276 -3.31006738092939
2024-03-21T00:06:26 -2704.36231104735 -1326.44716868848 5953.3435274721 -6.94426702979525 -0.750945022252225 -3.31805938070639
2024-03-21T00:06:27 -2711.30476181111 -1327.1972234547 5950.02147395152 -6.94063294576934 -0.749164342869895 -3.3260469153979
2024-03-21T00:06:28 -2718.2435738358 -1327.94549703998 5946.69143513326 -6.93698955247907 -0.747382660752559 -3.33402997426868
2024-03-21T00:06:30 -2725.17873781463 -1328.69198844277 5943.35341549851 -6.93333685485545 -0.745599978300832 -3.34200854658956
2024-03-21T00:06:31 -2732.11024444572 -1329.43669666394 5940.00741953919 -6.92967485784206 -0.74381629791667 -3.34998262163752
2024-03-21T00:06:32 -2739.03808443217 -1330.17962070676 5936.65345175792 -6.92600356639501 -0.742031622003362 -3.35795218869572
2024-03-21T00:06:33 -2745.96224848202 -1330.92075957691 5933.29151666805 -6.92232298548297 -0.740245952965531 -3.36591723705344
2024-03-21T00:06:33 -2752.88272730831 -1331.66011228246 5929.92161879364 -6.91863312008715 -0.738459293209128 -3.37387775600617
2024-03-21T00:06:34 -2759.79951162903 -1332.39767783389 5926.54376266943 -6.91493397520129 -0.736671645141431 -3.38183373485556
2024-03-21T00:06:35 -2766.71259216722 -1333.13345524411 5923.15795284088 -6.91122555583163 -0.734883011171038 -3.38978516290952
2024-03-21T00:06:37 -2773.62195965088 -1333.86744352841 5919.76419386412 -6.90750786699695 -0.733093393707868 -3.39773202948212
2024-03-21T00:06:38 -2780.52760481307 -1334.5996417045 5916.36249030599 -6.90378091372855 -0.731302795163155 -3.40567432389371
2024-03-21T00:06:39 -2787.42951839187 -1335.33004879251 5912.95284674397 -6.90004470107021 -0.729511217949446 -3.41361203547089
2024-03-21T00:06:40 -2794.32769113043 -1336.05866381498 5909.53526776623 -6.8962992340782 -0.727718664480596 -3.4215451535465
2024-03-21T00:06:40 -2801.22211377694 -1336.78548579686 5906.10975797162 -6.89254451782131 -0.725925137171767 -3.42947366745968
2024-03-21T00:06:41 -2808.11277708468 -1337.51051376552 5902.67632196961 -6.88878055738078 -0.724130638439423 -3.43739756655586
2024-03-21T00:06:42 -2814.99967181201 -1338.23374675074 5899.23496438035 -6.88500735785034 -0.722335170701327 -3.44531684018678
2024-03-21T00:06:43 -2821.88278872239 -1338.95518378473 5895.78568983463 -6.88122492433619 -0.720538736376537 -3.45323147771051
2024-03-21T00:06:45 -2828.76211858439 -1339.67482390211 5892.32850297386 -6.87743326195698 -0.718741337885406 -3.46114146849144
2024-03-21T00:06:46 -2835.63765217173 -1340.39266613993 5888.86340845012 -6.87363237584382 -0.716942977649573 -3.46904680190033
2024-03-21T00:06:47 -2842.50938026322 -1341.10870953764 5885.39041092608 -6.86982227114025 -0.715143658091965 -3.4769474673143
2024-03-21T00:06:47 -2849.37729364286 -1341.82295313715 5881.90951507505 -6.86600295300228 -0.713343381636792 -3.48484345411686
2024-03-21T00:06:48 -2856.2413830998 -1342.53539598276 5878.42072558095 -6.86217442659832 -0.71154215070954 -3.49273475169791
2024-03-21T00:06:49 -2863.10163942837 -1343.24603712122 5874.92404713829 -6.85833669710921 -0.709739967736975 -3.50062134945375
2024-03-21T00:06:50 -2869.95805342806 -1343.9548756017 5871.4194844522 -6.85448976972824 -0.707936835147132 -3.50850323678712
2024-03-21T00:06:52 -2876.81061590359 -1344.66191047579 5867.90704223841 -6.85063364966106 -0.706132755369318 -3.5163804031072
2024-03-21T00:06:53 -2883.65931766489 -1345.36714079752 5864.38672522321 -6.84676834212575 -0.704327730834104 -3.52425283782961
2024-03-21T00:06:54 -2890.5041495271 -1346.07056562335 5860.8585381435 -6.84289385235278 -0.702521763973323 -3.53212053037645
2024-03-21T00:06:55 -2897.3451023106 -1346.77218401217 5857.32248574673 -6.83901018558501 -0.70071485722007 -3.5399834701763
2024-03-21T00:06:55 -2904.18216684103 -1347.47199502531 5853.77857279094 -6.83511734707768 -0.698907013008693 -3.54784164666423
2024-03-21T00:06:56 -2911.01533394927 -1348.16999772652 5850.22680404472 -6.83121534209841 -0.697098233774795 -3.55569504928184
2024-03-21T00:06:57 -2917.84459447149 -1348.866191182 5846.66718428721 -6.82730417592715 -0.695288521955224 -3.56354366747723
2024-03-21T00:06:58 -2924.66993924916 -1349.56057446039 5843.09971830812 -6.82338385385627 -0.693477879988079 -3.57138749070505
2024-03-21T00:07:00 -2931.49135912901 -1350.25314663275 5839.52441090767 -6.81945438119043 -0.691666310312697 -3.57922650842653
2024-03-21T00:07:01 -2938.30884496312 -1350.94390677259 5835.94126689664 -6.81551576324667 -0.689853815369658 -3.58706071010942
2024-03-21T00:07:02 -2945.12238760886 -1351.63285395588 5832.35029109633 -6.81156800535435 -0.688040397600774 -3.59489008522809
2024-03-21T00:07:02 -2951.93197792896 -1352.31998726101 5828.75148833857 -6.80761111285518 -0.686226059449093 -3.60271462326349
2024-03-21T00:07:03 -2958.73760679148 -1353.0053057688 5825.14486346569 -6.80364509110316 -0.684410803358889 -3.6105343137032
2024-03-21T00:07:04 -2965.53926506987 -1353.68880856256 5821.53042133056 -6.79966994546463 -0.682594631775662 -3.61834914604139
2024-03-21T00:07:05 -2972.33694364291 -1354.37049472801 5817.90816679651 -6.79568568131821 -0.680777547146137 -3.62615910977892
2024-03-21T00:07:07 -2979.1306333948 -1355.05036335333 5814.27810473739 -6.79169230405485 -0.678959551918256 -3.63396419442326
2024-03-21T00:07:08 -2985.92032521512 -1355.72841352914 5810.64024003755 -6.78768981907778 -0.677140648541175 -3.64176438948857
2024-03-21T00:07:09 -2992.70600999886 -1356.40464434851 5806.9945775918 -6.78367823180249 -0.675320839465265 -3.64955968449569
2024-03-21T00:07:10 -2999.48767864644 -1357.07905490699 5803.34112230543 -6.77965754765677 -0.673500127142106 -3.65735006897215
2024-03-21T00:07:10 -3006.2653220637 -1357.75164430254 5799.67987909421 -6.77562777208069 -0.671678514024481 -3.66513553245221
2024-03-21T00:07:11 -3013.03893116194 -1358.4224116356 5796.01085288437 -6.77158891052654 -0.669856002566377 -3.67291606447683
2024-03-21T00:07:12 -3019.80849685792 -1359.09135600905 5792.33404861259 -6.76754096845891 -0.668032595222978 -3.68069165459372
2024-03-21T00:07:14 -3026.57401007385 -1359.75847652824 5788.649471226 -6.7634839513546 -0.666208294450666 -3.68846229235736
2024-03-21T00:07:15 -3033.33546173744 -1360.42377230096 5784.95712568217 -6.75941786470267 -0.664383102707014 -3.69622796732898
2024-03-21T00:07:16 -3040.09284278191 -1361.08724243748 5781.25701694912 -6.75534271400439 -0.662557022450782 -3.70398866907659
2024-03-21T00:07:17 -3046.84614414594 -1361.74888605052 5777.54915000527 -6.75125850477327 -0.660730056141917 -3.71174438717501
2024-03-21T00:07:17 -3053.59535677379 -1362.40870225524 5773.83352983949 -6.74716524253504 -0.658902206241548 -3.71949511120586
2024-03-21T00:07:18 -3060.34047161519 -1363.0666901693 5770.11016145105 -6.74306293282761 -0.657073475211982 -3.72724083075759
2024-03-21T00:07:19 -3067.08147962547 -1363.72284891278 5766.37904984963 -6.73895158120111 -0.6552438655167 -3.73498153542549
2024-03-21T00:07:20 -3073.81837176548 -1364.37717760827 5762.64020005532 -6.73483119321787 -0.653413379620356 -3.74271721481169
2024-03-21T00:07:22 -3080.55113900165 -1365.02967538078 5758.8936170986 -6.73070177445237 -0.651582019988774 -3.75044785852521
2024-03-21T00:07:23 -3087.27977230599 -1365.68034135783 5755.13930602033 -6.72656333049131 -0.649749789088939 -3.75817345618193
2024-03-21T00:07:24 -3094.0042626561 -1366.32917466937 5751.37727187175 -6.72241586693352 -0.647916689389 -3.76589399740464
2024-03-21T00:07:25 -3100.7246010352 -1366.97617444783 5747.60751971448 -6.71825938939001 -0.646082723358265 -3.77360947182303
2024-03-21T00:07:25 -3107.4407784321 -1367.62133982814 5743.83005462052 -6.71409390348395 -0.644247893467196 -3.78131986907371
2024-03-21T00:07:26 -3114.15278584126 -1368.26466994764 5740.04488167221 -6.70991941485063 -0.642412202187406 -3.78902517880024
2024-03-21T00:07:27 -3120.86061426277 -1368.90616394621 5736.25200596225 -6.7057359291375 -0.640575651991655 -3.79672539065314
2024-03-21T00:07:29 -3127.56425470239 -1369.54582096615 5732.45143259368 -6.70154345200412 -0.638738245353849 -3.80442049428986
2024-03-21T00:07:30 -3134.26369817154 -1370.18364015227 5728.64316667989 -6.6973419891222 -0.636899984749037 -3.81211047937486
2024-03-21T00:07:31 -3140.95893568729 -1370.81962065183 5724.82721334459 -6.69313154617553 -0.635060872653402 -3.81979533557959
2024-03-21T00:07:32 -3147.64995827243 -1371.45376161458 5721.00357772184 -6.68891212886003 -0.633220911544264 -3.82747505258249
2024-03-21T00:07:32 -3154.33675695546 -1372.08606219274 5717.17226495597 -6.6846837428837 -0.631380103900073 -3.83514962006905
2024-03-21T00:07:33 -3161.01932277056 -1372.71652154103 5713.33328020167 -6.68044639396664 -0.629538452200408 -3.84281902773178
2024-03-21T00:07:34 -3167.69764675766 -1373.34513881662 5709.48662862392 -6.67620008784103 -0.627695958925972 -3.85048326527022
2024-03-21T00:07:35 -3174.37171996242 -1373.97191317919 5705.63231539798 -6.67194483025113 -0.625852626558585 -3.85814232239101
2024-03-21T00:07:37 -3181.04153343626 -1374.59684379088 5701.77034570941 -6.66768062695324 -0.62400845758119 -3.86579618880786
2024-03-21T00:07:38 -3187.70707823635 -1375.21992981632 5697.90072475406 -6.66340748371575 -0.622163454477842 -3.87344485424154
2024-03-21T00:07:39 -3194.36834542564 -1375.84117042263 5694.02345773805 -6.65912540631907 -0.620317619733704 -3.88108830841996
2024-03-21T00:07:39 -3201.02532607287 -1376.46056477941 5690.13854987777 -6.65483440055569 -0.61847095583505 -3.88872654107815
